#dP2023 12  9  0  0  0.00000000      97 __u+U IGS20 FIT  IAC
## 2291 518400.00000000   900.00000000 60287 0.0000000000000
+  118   C06C07C08C09C10C11C12C13C14C16C19C20C21C22C23C24C25
+        C26C27C28C29C30C32C33C34C35C36C37C38C39C40C41C42C43
+        C44C45C46E02E03E04E05E07E08E09E10E11E12E13E15E18E19
+        E21E24E25E26E27E30E31E33E34E36G01G02G03G04G05G06G07
+        G09G10G11G12G13G14G15G16G17G18G19G20G21G22G23G24G25
+        G26G27G28G29G30G31G32J02J03J04R01R02R03R04R05R07R08
+        R09R11R12R13R14R15R16R17R18R19R20R21R22R24R25R26  0
++         7  8  7  7  9  7  6  7  7  7  6  6  5  5  6  5  6
++         5  5  6  6  6  6  6  6  6  5  6  6  6  6  6  6  6
++         5  6  5  4  4  4  4  4  4  4  4  4  4  4  4  4  4
++         4  4  4  4  4  4  4  4  4  4  3  3  3  3  4  3  3
++         3  3  3  3  3  3  3  4  3  3  3  4  3  3  3  3  3
++         4  4  3  3  3  3  3  9  9  9  8  6  6  6  6  7  7
++         7  6  6  7  6  6  7  6  7  8  8  7  7  6  9  9  0
%c M  cc GPS ccc cccc cccc cccc cccc ccccc ccccc ccccc ccccc
%c cc cc ccc ccc cccc cccc cccc cccc ccccc ccccc ccccc ccccc
%f  1.2500000  1.025000000  0.00000000000  0.000000000000000
%f  0.0000000  0.000000000  0.00000000000  0.000000000000000
%i    0    0    0    0      0      0      0      0         0
%i    0    0    0    0      0      0      0      0         0
/* INFORMATION & ANALYSIS CENTER (IAC)            FINAL DATA
/* S/V CLOCKS ARE ALIGNED TO GNSS TIME                      
/* G:C1WC2W R:C1PC2P E:C1XC5X C:C2IC6I J:C1CC2S             
/* PCV:IGS20_2290 OL/AL:FES2004  NONE     YN ORB:CoN CLK:CoN
*  2023 12 09 10  0  0.00000000
PC06 -16863.230570  37393.724790   9093.951583    199.350250
PC07  -2108.273123  34272.425498  24676.309822   -446.541431
PC08 -11177.341941  19486.461188 -35720.680147    191.701173
PC09  -8918.572703  36135.514782  19666.066808   -194.330669
PC10   5636.641572  37337.347627  19622.777744    -46.796463
PC11 -16819.865713   5179.129750  21737.509835    297.372358
PC12  -9912.976142 -15442.192081  21069.471054    831.685317
PC13  -4497.875713  21608.906810 -35788.550156    393.436378
PC14 -21097.018740  -4396.476790 -17692.628318   -284.539673
PC16 -18215.802277  37172.863767   7317.712352   -216.959014
PC19  16322.247774  -4715.936167  22160.333443   -955.227017
PC20  22454.042313  11549.042324  11912.724460     44.942204
PC21 -15450.729319 -22294.686771   6530.127926   -968.322638
PC22    464.183766 -19205.724892  20227.172302   -193.528356
PC23 -12866.205344  16801.673725  18193.187277   -806.835984
PC24 -24293.730376  -3740.861589 -13262.182959    675.346435
PC25 -25637.271763  10238.979180   4152.799513    274.056244
PC26  -9389.798968 -14019.494487 -22252.073919   -217.688033
PC27   4899.470000  22489.131364 -15787.411755    239.679973
PC28  -7132.065430  26959.515364  -1064.576943    181.254297
PC29  16031.874001 -15496.053987 -16782.002547    212.172714
PC30  15003.049643   5902.900626 -22779.069153    -10.010290
PC32  15574.143877  22192.968891  -6609.606092   -541.123540
PC33 -16364.718898   4744.440987 -22099.404021   -942.123845
PC34 -15496.758984  -4267.182000  22804.579958    321.047242
PC35   6084.796077 -27232.173290   1108.701602    484.734324
PC36  26139.016869  -9143.290113  -3373.230308   -100.357246
PC37   8305.440716  14496.406982  22352.787878   -917.391970
PC38 -19452.249805  20306.591564 -31445.045478    122.911749
PC39 -19096.583350  37385.940379   2170.174377     -6.007065
PC40  -5497.728957  30758.775015  28462.888530    -47.150006
PC41  -1106.928146  18818.272845 -20528.514131   -872.892117
PC42 -22459.352857 -12755.413187 -10501.505932   -484.113354
PC43 -16325.045132  14565.482305  17305.742542     51.584802
PC44  -5694.864469 -22470.798292  15548.861116    317.440722
PC45  12358.243793 -16759.062400 -18573.231601    -53.393343
PC46  24780.389553   2968.172133  12428.222122   -106.107970
PE02  28320.577880   4594.373751  -7238.745899     85.151995
PE03  17464.973266   2489.720138  23759.215324    -78.923422
PE04 -10640.355373  18891.679027 -20148.985745   -276.017612
PE05  14094.488885  22216.170220  13555.688419   4698.769438
PE07  -2154.249005 -29081.041621   5068.510446    -92.101181
PE08  10833.518018 -18342.096556  20542.438240   -189.456883
PE09   2110.122695  29064.170235  -5225.205607   -256.607936
PE10 -15794.819360  22774.089860 -10405.741609   -585.006664
PE11  -6563.867166  21881.688402 -18819.974619   3257.420214
PE12 -21690.043076  20086.678661  -1353.112405   -811.239696
PE13   7260.816806 -22045.458867  18381.946928    -19.661843
PE15  21898.860337 -19899.190662    858.013748    -73.777536
PE18 -15803.786991   3769.009289  19139.434168     74.420983
PE19 -17464.864799  -5349.040368 -23293.494115  -1051.140132
PE21 -22782.271465 -15617.522150 -10657.739824   -568.006887
PE24   3038.734527  18067.265699  23227.052106   -476.124812
PE25  22505.144493  15766.069659  10993.346691     -2.230890
PE26 -12081.624848 -10869.163114  24751.365574    304.504597
PE27  -3690.452373 -18110.113829 -23125.256005   -219.791924
PE30  17679.139184  -9706.621797 -21670.696981   -727.562999
PE31 -17381.740393   9897.586182  21827.107448    -11.401574
PE33 -23326.752536   5600.651192  17355.141348      3.868770
PE34  23486.002101  -6157.328179 -16920.264562    -82.385700
PE36  11389.190769  11270.381070 -24879.098109   -155.239240
PG01 -11124.180724  20403.010527 -12894.544404    163.741427
PG02 -15299.073092  20842.303435  -5064.983792   -518.018220
PG03  -4297.536326  14181.206075 -22186.756504     41.861336
PG04  -2062.665450  24933.009156  -8708.541120    234.765565
PG05  17305.185512  -8096.988752  18313.774093   -153.451979
PG06  19649.199328  -1423.246850 -17793.293270    483.279048
PG07   5027.536790  15735.159255  21192.007147     -7.385682
PG09   7124.945689  25470.552820   1982.105856     21.361595
PG10 -23946.791389 -11163.352162   4312.089069    -64.604655
PG11  22797.410101 -10255.292245  -8874.919766   -493.646011
PG12   6206.554045 -13958.191469 -22008.495303   -455.579675
PG13  13249.971520 -10570.290426  20188.237310    603.792940
PG14  21770.041054  13594.799060   7205.981032    265.922967
PG15   4661.607582 -20700.252832  15353.079659    105.160750
PG16 -22127.785277   1365.752299  14637.955926   -407.477374
PG17  12455.377869  17990.698834 -14521.423908    722.259458
PG18  -5665.715849 -14394.025551  21580.534800   -501.514285
PG19  14763.113522   9500.938995 -20224.227361    410.028802
PG20  25108.640908  -1989.635698   8188.198756    397.544356
PG21 -17120.061329  19514.273229  -1573.617646    142.047527
PG22  24023.196123  10948.503941    363.281448     69.236310
PG23 -15624.114175 -15454.334933  15066.627214    112.909312
PG24  13884.298045 -21558.077241  -6413.041390   -389.513370
PG25  -7594.496698 -16966.931127 -19398.350515    480.767218
PG26 -25990.162556  -2282.242123   5789.053987    210.647418
PG27 -13820.498122   6516.772242  21422.860615    -80.710842
PG28 -18622.017917   -679.639754 -18947.341199    -65.548415
PG29  -4208.156204 -26121.783614   1530.327123   -609.894068
PG30  14473.733469   7926.999457  20972.838913   -459.450860
PG31 -22400.042087   6464.602275 -13303.052121   -226.456623
PG32 -14933.158535 -14075.422917 -16788.184116   -594.530852
PJ02 -28290.150446  21315.243771  27982.948517     -0.480892
PJ03 -32669.364741  26394.328943   8491.390409    -11.254451
PJ04 -21861.362424  23011.685361 -22678.833698     73.828009
PR01  12580.200377  21677.520436  -4761.427345     71.705358
PR02  16624.736282  14447.164711  12842.926336    -22.330015
PR03  11763.277499  -1538.945701  22615.285222     90.558123
PR04    491.528688 -16043.352884  19857.742602    214.461902
PR05 -10922.277881 -22171.761625   6381.380785    123.515185
PR07 -11351.720023   2214.511322 -22704.873232     70.928404
PR08   -290.912388  16202.356171 -19629.321282    -73.604649
PR09 -22815.319390  -3202.266642 -10848.060763    157.725220
PR11 -13210.333725  10224.530502  19278.218602   -219.689706
PR12   7804.367141  10065.822701  22117.138287     34.271530
PR13  21569.634113   4400.036049  12862.378020    -42.138061
PR14  24242.370241  -4951.143878  -6228.644478     25.720964
PR15  11918.184135 -10469.663206 -19961.657398     84.099122
PR16  -7518.573539  -9933.377780 -22249.539677     21.368192
PR17  14806.791527 -13570.690970 -15682.180923     41.958568
PR18  11771.265129 -22657.211905   -223.819336    115.977025
PR19   4278.942581 -20787.330665  14153.850512   -257.643930
PR20  -9188.954389  -4841.537418  23312.975240   -104.856632
PR21 -14905.959705  13999.104998  15274.289925    -59.622004
PR22 -12028.586960  22475.206590   -720.961160     97.411976
PR24  10090.844445   4078.714812 -23044.510199    -35.258847
PR25   -690.398154  15775.233349 -20021.326399    -13.081784
PR26 -15583.107675  12895.935444  15565.670064     -0.674770
EOF
